[{"OBJECT_NAME":"STARLINK-34364","OBJECT_ID":"2025-133Z","EPOCH":"2026-03-09T12:29:53.105856","MEAN_MOTION":15.30197284,"ECCENTRICITY":0.00011452,"INCLINATION":53.1589,"RA_OF_ASC_NODE":115.3473,"ARG_OF_PERICENTER":83.2441,"MEAN_ANOMALY":276.869,"EPHEMERIS_TYPE":0,"CLASSIFICATION_TYPE":"U","NORAD_CAT_ID":64495,"ELEMENT_SET_NO":999,"REV_AT_EPOCH":4119,"BSTAR":0.00093718525,"MEAN_MOTION_DOT":0.00027498,"MEAN_MOTION_DDOT":0},{"OBJECT_NAME":"SL-3 R\/B","OBJECT_ID":"1981-065B","EPOCH":"2026-03-09T21:58:16.284000","MEAN_MOTION":15.33300883,"ECCENTRICITY":0.00117648,"INCLINATION":97.6337,"RA_OF_ASC_NODE":111.1786,"ARG_OF_PERICENTER":10.529,"MEAN_ANOMALY":349.6196,"EPHEMERIS_TYPE":0,"CLASSIFICATION_TYPE":"U","NORAD_CAT_ID":12586,"ELEMENT_SET_NO":999,"REV_AT_EPOCH":43499,"BSTAR":0.00030084921,"MEAN_MOTION_DOT":9.62e-5,"MEAN_MOTION_DDOT":0}]
